HULIANWANG DIGUI-18     
1 62978U 25030H   26046.91252688 -.00000068  00000+0  12046-3 0  9991
2 62978  50.0079 310.4670 0000611 112.1742 247.9196 13.29336775 49739
HULIANWANG DIGUI-19     
1 62979U 25030J   26046.94577958 -.00000072  00000+0  11129-3 0  9991
2 62979  50.0064 310.5981 0000620 104.5214 255.5727 13.29339821 49739
STARLINK-11543 [DTC]    
1 62981U 25031A   26046.29189617  .00397688  00000+0  29272-2 0  9992
2 62981  43.0003 136.1250 0001839 191.1880 168.8947 15.71080882 59226
STARLINK-11458 [DTC]    
1 62982U 25031B   26046.62573315  .00205483  00000+0  15591-2 0  9992
2 62982  43.0015 134.3391 0001969 295.2794  64.7869 15.70938290 59276
STARLINK-11417 [DTC]    
1 62983U 25031C   26046.59931645  .00293116  00000+0  21984-2 0  9996
2 62983  43.0003 135.0183 0001797 294.3745  65.6935 15.70946555 59262
STARLINK-11544 [DTC]    
1 62984U 25031D   26046.62040571  .00233910  00000+0  17644-2 0  9994
2 62984  43.0004 134.2940 0001500 272.5539  87.5157 15.70991029 59240
STARLINK-11582 [DTC]    
1 62985U 25031E   26046.63635182  .00236750  00000+0  17885-2 0  9996
2 62985  43.0004 134.4207 0001457 278.6294  81.4408 15.70946735 59274
STARLINK-11571 [DTC]    
1 62986U 25031F   26046.60449477  .00309437  00000+0  23129-2 0  9995
2 62986  43.0007 134.1643 0001750 295.8518  64.2169 15.70978088 59274
STARLINK-11539 [DTC]    
1 62987U 25031G   26046.24954938  .00345813  00000+0  25691-2 0  9993
2 62987  42.9993 136.6766 0001475 247.4643 112.6069 15.71014436 59216
STARLINK-11542 [DTC]    
1 62988U 25031H   26045.59778578  .00120715  00000+0  92954-3 0  9994
2 62988  43.0004 140.3809 0001577 276.5389  83.5299 15.70868361 59084
STARLINK-11573 [DTC]    
1 62989U 25031J   26046.26546012  .00352927  00000+0  26135-2 0  9995
2 62989  42.9975 136.8021 0001640 193.2683 166.8142 15.71069538 59182
STARLINK-11572 [DTC]    
1 62990U 25031K   26046.62133414  .00257259  00000+0  19383-2 0  9994
2 62990  43.0011 134.2967 0001760 273.1949  86.8717 15.70946005 59275
STARLINK-11583 [DTC]    
1 62991U 25031L   26046.65227858  .00266406  00000+0  20035-2 0  9994
2 62991  43.0010 134.5478 0002202 294.2257  65.8381 15.70962017 59289
STARLINK-11570 [DTC]    
1 62992U 25031M   26046.65758563  .00132155  00000+0  10140-2 0  9996
2 62992  42.9998 134.5909 0001458 282.2397  77.8308 15.70912325 59263
STARLINK-11576 [DTC]    
1 62993U 25031N   26046.64166301  .00256437  00000+0  19326-2 0  9994
2 62993  43.0011 134.4617 0001720 299.7625  60.3072 15.70942565 59260
STARLINK-32899          
1 62994U 25031P   26046.60781476  .00034731  00000+0  12637-2 0  9996
2 62994  42.9925 268.4413 0002462  47.9251 312.1810 15.27630767 57713
STARLINK-32819          
1 62995U 25031Q   26046.05131884  .00008588  00000+0  32122-3 0  9991
2 62995  42.9946 271.1331 0000661   0.7832 359.3020 15.27580281 57630
STARLINK-32703          
1 62996U 25031R   26046.60267745  .00035979  00000+0  13094-2 0  9999
2 62996  43.0015 268.3965 0003056 300.8774  59.1777 15.27608932 57718
STARLINK-32881          
1 62997U 25031S   26046.95644793  .00029328  00000+0  10700-2 0  9992
2 62997  42.9963 265.8772 0001622  26.1006 333.9927 15.27613519 57773
STARLINK-32898          
1 62998U 25031T   26046.66163268  .00037613  00000+0  13686-2 0  9996
2 62998  43.0026 267.9732 0001076 266.7310  93.3419 15.27598934 57729
STARLINK-32658          
1 62999U 25031U   26046.04488197  .00017070  00000+0  62819-3 0  9998
2 62999  43.0029 271.0774 0002270 263.7582  96.3011 15.27589823 57638
STARLINK-32673          
1 63000U 25031V   26046.91668981  .00014474  00000+0  53472-3 0  9999
2 63000  42.9999 266.3948 0001194 268.6325 112.3127 15.27564049  5867
STARLINK-32437          
1 63001U 25031W   26046.61166878  .00028980  00000+0  10576-2 0  9999
2 63001  42.9960 268.4684 0001409  11.4008 348.6876 15.27608488 57719
2025-009DM              
1 63002U 25009DM  26046.75519015  .00145942  00000+0  19757-2 0  9993
2 63002  97.4125 135.7485 0003260 260.3375  99.7512 15.57199113118398
FOSSASAT-2E20 (TAT-O)   
1 63003U 25009DN  26046.75021424  .00017515  00000+0  67765-3 0  9993
2 63003  97.3287 124.7431 0003859  58.9025 301.2592 15.26256818117966
STARLINK-11448 [DTC]    
1 63005U 25032A   26046.15454645  .00210734  00000+0  16022-2 0  9997
2 63005  43.0002 330.8154 0001365 271.1117  88.9594 15.70874114 58682
STARLINK-11553 [DTC]    
1 63006U 25032B   26046.84345311  .00395630  00000+0  29360-2 0  9991
2 63006  42.9999 327.4095 0005553 299.4287  60.6026 15.70883465 58772
STARLINK-11526 [DTC]    
1 63007U 25032C   26046.21281903  .00302429  00000+0  22741-2 0  9999
2 63007  43.0004 330.3875 0001715 262.5894  97.4779 15.70856735 58685
STARLINK-11405 [DTC]    
1 63008U 25032D   26046.26153019  .00234988  00000+0  17855-2 0  9995
2 63008  42.9999 330.7795 0001630 274.0618  86.0063 15.70813471 58534
STARLINK-11586 [DTC]    
1 63009U 25032E   26046.94407805  .00081023  00000+0  62802-3 0  9999
2 63009  42.9997 326.4266 0001916 225.6873 134.3837 15.70868390 58794
STARLINK-11574 [DTC]    
1 63010U 25032F   26046.82752104  .00285126  00000+0  21339-2 0  9992
2 63010  43.0007 327.2788 0003114 280.9013  79.1504 15.71019371 58773
STARLINK-11580 [DTC]    
1 63011U 25032G   26046.80097687  .00289507  00000+0  21648-2 0  9999
2 63011  42.9999 327.0654 0002010 260.4093  99.6548 15.71028306 58624
STARLINK-11449 [DTC]    
1 63012U 25032H   26046.17578028  .00141350  00000+0  10855-2 0  9994
2 63012  43.0008 330.9836 0001836 272.6662  87.3996 15.70860692 58672
STARLINK-11577 [DTC]    
1 63013U 25032J   26046.82221389  .00430255  00000+0  31538-2 0  9998
2 63013  42.9997 327.2357 0002113 253.3723 106.6913 15.71082777 58774
STARLINK-11578 [DTC]    
1 63014U 25032K   26046.77456187  .00325968  00000+0  24261-2 0  9998
2 63014  43.0001 327.7464 0001231 239.0915 120.9832 15.71029954 58712
STARLINK-11541 [DTC]    
1 63015U 25032L   26046.79566579  .00273908  00000+0  20513-2 0  9990
2 63015  43.0002 327.0200 0002285 240.1873 119.8768 15.71039635 58780
STARLINK-11545 [DTC]    
1 63016U 25032M   26046.80628350  .00253101  00000+0  19010-2 0  9992
2 63016  42.9996 327.1058 0002092 230.9507 129.1175 15.71033623 58787
STARLINK-11400 [DTC]    
1 63017U 25032N   26046.83283423  .00421855  00000+0  31021-2 0  9993
2 63017  43.0002 327.3198 0003017 248.2991 111.7556 15.71031521 58776
STARLINK-32870          
1 63018U 25032P   26046.16065194  .00023997  00000+0  87829-3 0  9996
2 63018  42.9988 103.3532 0005377 297.8950  62.1357 15.27585231 57172
STARLINK-32872          
1 63019U 25032Q   26046.57480529  .00035566  00000+0  12937-2 0  9997
2 63019  43.0027 101.3087 0001575 292.4442  67.6243 15.27631309 57234
STARLINK-32677          
1 63020U 25032R   26046.55681685  .00037207  00000+0  13535-2 0  9992
2 63020  43.0023 101.1714 0002238 286.2208  73.8397 15.27609153 57225
STARLINK-32929          
1 63021U 25032S   26046.49528505  .00051439  00000+0  18633-2 0  9994
2 63021  42.9979 101.5663 0001096 289.8556  70.2178 15.27623792 57220
STARLINK-32944          
1 63022U 25032T   26046.51328157  .00013861  00000+0  51219-3 0  9994
2 63022  42.9991 101.7089 0000922 274.7260  85.3486 15.27585916 57225
STARLINK-32943          
1 63023U 25032U   26046.14266818  .00023062  00000+0  84596-3 0  9997
2 63023  43.0022 103.2204 0000903 238.4866 121.5897 15.27541560 57177
STARLINK-32803          
1 63024U 25032V   26046.20418918  .00024584  00000+0  89953-3 0  9997
2 63024  42.9997 102.8150 0000949 217.0286 143.0500 15.27594257 57026
STARLINK-32926          
1 63025U 25032W   26046.45930190  .00027319  00000+0  99730-3 0  9999
2 63025  43.0092 101.2953 0003122 288.7982  71.2531 15.27620056 57228
GLOBAL-31               
1 63027U 25033B   26046.60756574  .00015885  00000+0  42475-3 0  9990
2 63027  58.9984  87.4986 0007298  28.0171 332.1297 15.38275414 55614
STARLINK-32798          
1 63029U 25034A   26046.18614843  .00029961  00000+0  10188-2 0  9993
2 63029  53.1604  15.2817 0001456  94.5762 265.5405 15.30227289 55460
STARLINK-32779          
1 63030U 25034B   26046.30845344  .00031813  00000+0  10817-2 0  9999
2 63030  53.1615  15.3315 0001656  70.7970 289.3210 15.30198708 55479
STARLINK-32716          
1 63031U 25034C   26046.83662699  .00030440  00000+0  10348-2 0  9992
2 63031  53.1598 359.4421 0001145 105.0769 255.0359 15.30225661 55744
STARLINK-32776          
1 63032U 25034D   26046.29735878  .00048156  00000+0  16260-2 0  9995
2 63032  53.1596   2.4749 0001176  70.3835 289.7293 15.30230406 55657
STARLINK-32772          
1 63033U 25034E   26046.85140456  .00029785  00000+0  10129-2 0  9995
2 63033  53.1616 359.5385 0001447  71.5893 288.5265 15.30225695 55741
STARLINK-32830          
1 63034U 25034F   26046.26779470  .00040354  00000+0  13683-2 0  9998
2 63034  53.1619   2.2923 0001324  66.4611 293.6529 15.30173414 55651
STARLINK-32801          
1 63035U 25034G   26046.28362565  .00036275  00000+0  12311-2 0  9998
2 63035  53.1604   2.3943 0001360 103.3326 256.7826 15.30193468 55643
STARLINK-32818          
1 63036U 25034H   26046.27202404  .00047828  00000+0  16145-2 0  9998
2 63036  53.1613   2.3219 0001468  76.3166 283.7999 15.30241555 55653
STARLINK-32810          
1 63037U 25034J   26046.28045789  .00041227  00000+0  13959-2 0  9998
2 63037  53.1607   2.3739 0001168  95.6430 264.4704 15.30212140 55657
STARLINK-32812          
1 63038U 25034K   26046.14561030  .00020588  00000+0  70514-3 0  9994
2 63038  53.1614   2.9496 0001334  70.0291 290.0853 15.30207706 55639
STARLINK-32811          
1 63039U 25034L   26046.21303481  .00049029  00000+0  16568-2 0  9996
2 63039  53.1611   2.6622 0001375  76.3338 283.7815 15.30196408 55645
STARLINK-32832          
1 63040U 25034M   26046.26463096  .00025279  00000+0  86264-3 0  9994
2 63040  53.1614   2.2738 0001396  74.6567 285.4588 15.30202411 55651
